ลำดับ,name,address,district,province,postalcode,tel,region
1,เทพธารินทร์,3850 ถ.พระราม 4 แขวงพระโขนง,คลองเตย,กรุงเทพมหานคร,10110,02-3487000,กรุงเทพมหานคร (Bangkok)
2,กล้วยน้ำไท 1,80 ซ.โรงพยาบาล 2 ถ.พระราม 4 แขวงคลองตัน,คลองเตย,กรุงเทพมหานคร,10110,02-7692000,กรุงเทพมหานคร (Bangkok)
3,สินแพทย์,9/99 ถ.รามอินทรา กม 8.5 แขวงคันนายาว,คันนายาว,กรุงเทพมหานคร,10230,02-9485380-90,กรุงเทพมหานคร (Bangkok)
4,เซ็นทรัลเยนเนอรัล,290 ถนนพหลโยธิน แขวงอนุสาวรีย์,บางเขน,กรุงเทพมหานคร,10220,"02-5528777,02-5528801",กรุงเทพมหานคร (Bangkok)
5,เจ้าพระยา,113/44 ถ.พระบรมราชชนนี บางบำหรุ,บางพลัด,กรุงเทพมหานคร,10700,02-4340117,กรุงเทพมหานคร (Bangkok)
6,เปาโล เกษตร (เมโย),2012/5-7 ถ.พหลโยธิน แขวงลาดยาว,จตุจักร,กรุงเทพมหานคร,10900,02-5791770-4,กรุงเทพมหานคร (Bangkok)
7,วิภาวดี,51/3 ถ.งามวงศ์วาน แขวงลาดยาว,จตุจักร,กรุงเทพมหานคร,10900,02-9412800,กรุงเทพมหานคร (Bangkok)
8,บางปะกอก 9 อินเตอร์เนชั่นแนล,362 ถ.พระราม 2 แขวงบางมด,จอมทอง,กรุงเทพมหานคร,10150,02-8771111,กรุงเทพมหานคร (Bangkok)
9,บางมด,747 ถ.พระราม 2 แขวงบางมด,จอมทอง,กรุงเทพมหานคร,10150,02-8670606,กรุงเทพมหานคร (Bangkok)
10,มิชชั่น,430 ถ.พิษณุโลก แขวงบางซื่อ,ดุสิต,กรุงเทพมหานคร,10300,02-2821100,กรุงเทพมหานคร (Bangkok)
11,ธนบุรี 2,43/4 ถนนบรมราชชนนี แขวงศาลาธรรมสพน์,ทวีวัฒนา,กรุงเทพมหานคร,10170,02-4872100 (สายด่วน 1645),กรุงเทพมหานคร (Bangkok)
12,สมิติเวช ธนบุรี,337 ถนนสมเด็จพระเจ้าตากสิน แขวงสำเหร่,ธนบุรี,กรุงเทพมหานคร,10600,02-4380040,กรุงเทพมหานคร (Bangkok)
13,เกษมราษฎร์ บางแค,"586, 588 ถ.เพชรเกษม แขวงบางแคเหนือ",บางแค,กรุงเทพมหานคร,10160,02- 8048959,กรุงเทพมหานคร (Bangkok)
14,ธนบุรี 1,34/1 ถ.อิสรภาพ ซอย 44,บางกอกน้อย,กรุงเทพมหานคร,10700,02-4120020,กรุงเทพมหานคร (Bangkok)
15,โรงพยาบาลทั่วไปขนาดกลาง วิชัยเวช แยกไฟฉาย (ศรีวิชัย 1),240/1-7 ถนนจรัญสนิทวงศ์ แขวงบ้านช่างหล่อ,บางกอกน้อย,กรุงเทพมหานคร,10700,02-4120055,กรุงเทพมหานคร (Bangkok)
16,เวชธานี,1 ถ.ลาดพร้าว 111 แขวงคลองจั่น,บางกะปิ,กรุงเทพมหานคร,10240,02-7340000,กรุงเทพมหานคร (Bangkok)
17,รามคำแหง,436 ถ.รามคำแหง แขวงหัวหมาก,บางกะปิ,กรุงเทพมหานคร,10240,02-3740200,กรุงเทพมหานคร (Bangkok)
18,นครธน,1 ซอยพระรามที่ 2 ซอย 56 แขวงแสมดำ,บางขุนเทียน,กรุงเทพมหานคร,10150,02-4165454,กรุงเทพมหานคร (Bangkok)
19,พระราม 2,78/1 หมู่ที่ ม.6 ซอย ถนน พระราม 2 ตำบล แสมดำ,บางขุนเทียน,กรุงเทพมหานคร,10150,02-4514920-30,กรุงเทพมหานคร (Bangkok)
20,เกษมราษฎร์ ประชาชื่น,950 ถ.ประชาชื่น แขวงวงศ์สว่าง,บางซื่อ,กรุงเทพมหานคร,10800,02-9101600,กรุงเทพมหานคร (Bangkok)
21,บางโพ,95 ถ.ประชาราษฎร์ สาย 2,บางซื่อ,กรุงเทพมหานคร,10800,02-5870136-55,กรุงเทพมหานคร (Bangkok)
22,ไทยนครินทร์,345 ถ.บางนา-ตราด กม.3.5 แขวงบางนา,บางนา,กรุงเทพมหานคร,10260,02-3612727,กรุงเทพมหานคร (Bangkok)
23,กล้วยน้ำไท 2,24 สุขุมวิท68 ( ซอย โสภณ ),บางนา,กรุงเทพมหานคร,10260,02-3994259-63,กรุงเทพมหานคร (Bangkok)
24,บางนา 1,1302 ถนนบางนา - ตราด แขวงบางนา,บางนา,กรุงเทพมหานคร,10260,02-7468630-9,กรุงเทพมหานคร (Bangkok)
25,บางปะกอก 8,1055 ถนนเอกชัย แขวงบางบอน,บางบอน,กรุงเทพมหานคร,10150,02-8944111,กรุงเทพมหานคร (Bangkok)
26,ยันฮี,454 ถนนจรัญสนิทวงศ์ แขวงบางอ้อ,บางพลัด,กรุงเทพมหานคร,10700,02-8790300,กรุงเทพมหานคร (Bangkok)
27,ปิยะมินทร์,35/2 ถ.บางนา-ตราด (กม.6),บางพลี,สมุทรปราการ,10540,"02-3160026,02-3160034",กรุงเทพมหานคร (Bangkok)
28,บีเอ็นเอช,9/1 ถ.คอนแวนต์ สีลม,บางรัก,กรุงเทพมหานคร,10500,02-6862700,กรุงเทพมหานคร (Bangkok)
29,มเหสักข์,46/7-9 ถ.มเหสักข์ แขวงสีลม,บางรัก,กรุงเทพมหานคร,10500,02-6357123,กรุงเทพมหานคร (Bangkok)
30,พญาไท นวมินทร์ (เปาโล เมโมเรียล นวมินทร์),44/505 ถ.นวมินทร์ แขวงคลองกุ่ม,บึงกุ่ม,กรุงเทพมหานคร,10230,02-9447111,กรุงเทพมหานคร (Bangkok)
31,หัวเฉียว,665 ถ.บำรุงเมือง,ป้อมปราบศัตรูพ่าย,กรุงเทพมหานคร,10100,02-2231351,กรุงเทพมหานคร (Bangkok)
32,เปาโล เมโมเรียล,670/1 สี่แยกสะพานควาย แขวงสามเสนใน,พญาไท,กรุงเทพมหานคร,10400,02-2797000-9,กรุงเทพมหานคร (Bangkok)
33,พญาไท 2,943 ถ.พหลโยธิน สามเสนใน,พญาไท,กรุงเทพมหานคร,10400,02-6172444,กรุงเทพมหานคร (Bangkok)
34,วิชัยยุทธ,114/4 ถ.เศรษฐศิริ แขวงสามเสนใน,พญาไท,กรุงเทพมหานคร,10400,02-2657777,กรุงเทพมหานคร (Bangkok)
35,ศิครินทร์,4/29 ม.10 ถ.ศรีนครินทร์ แขวงบางนา,พระโขนง,กรุงเทพมหานคร,10260,02-3669900-99,กรุงเทพมหานคร (Bangkok)
36,พญาไท 3,111 ถนนเพชรเกษม แขวงปากคลองภาษีเจริญ,ภาษีเจริญ,กรุงเทพมหานคร,10160,02-467 1111,กรุงเทพมหานคร (Bangkok)
37,เพชรเกษม 2,675 ถนนเพชรเกษม แขวงบางหว้า,ภาษีเจริญ,กรุงเทพมหานคร,10160,02-4555599,กรุงเทพมหานคร (Bangkok)
38,เสรีรักษ์,44 ถ.เสรีไทย แขวงมีนบุรี,มีนบุรี,กรุงเทพมหานคร,10510,02-9189888,กรุงเทพมหานคร (Bangkok)
39,นวมินทร์ 1,41 ซอยสีหบุรานุกิจ 10 ถนนสีหบุรานุกิจ แขวงมีนบุรี,มีนบุรี,กรุงเทพมหานคร,10510,02-9185080,กรุงเทพมหานคร (Bangkok)
40,นวมินทร์ 9,96 หมู่ 13 ถนนสีหบุรานุกิจ แขวงมีนบุรี,มีนบุรี,กรุงเทพมหานคร,10510,02-5181818,กรุงเทพมหานคร (Bangkok)
41,พญาไท 1,364/1 ถ.ศรีอยุธยา,ราชเทวี,กรุงเทพมหานคร,10400,02-6401111,กรุงเทพมหานคร (Bangkok)
42,บางปะกอก 1,2 ซอยสุขสวัสดิ์ 25/1 ถนนสุขสวัสดิ์ แขวงบางปะกอก,ราษฎร์บูรณะ,กรุงเทพมหานคร,10140,02-8721111-91,กรุงเทพมหานคร (Bangkok)
43,ราษฎร์บูรณะ,377 ถนนราษฎร์พัฒนา แขวงบางปะกอก,ราษฎร์บูรณะ,กรุงเทพมหานคร,10140,02-4270175-9,กรุงเทพมหานคร (Bangkok)
44,สุขสวัสดิ์,272 ถนนสุขสวัสดิ์ แขางบางปะกอก,ราษฏร์บูรณะ,กรุงเทพมหานคร,10140,0-2874-6766-70,กรุงเทพมหานคร (Bangkok)
45,เปาโล เมโมเรียล โชคชัย 4,1 ถนนโชคชัย 4 แขวงลาดพร้าว,ลาดพร้าว,กรุงเทพมหานคร,10230,02-5142157-9,กรุงเทพมหานคร (Bangkok)
46,ลาดพร้าว,2699 ถ.ลาดพร้าว แขวงคลองเจ้าคุณสิงห์,วังทองหลาง,กรุงเทพมหานคร,10310,02-9322929,กรุงเทพมหานคร (Bangkok)
47,คามิลเลียน,423 ซอยทองหล่อ ถนนสุขุมวิท 55 แขวงคลองตันเหนือ,วัฒนา,กรุงเทพมหานคร,10110,02-1851444,กรุงเทพมหานคร (Bangkok)
48,บ้านแพ้วสาขาพร้อมมิตร,12 ซ.พร้อมมิตร (สุขุมวิท 39),วัฒนา,กรุงเทพมหานคร,10110,02-2590376,กรุงเทพมหานคร (Bangkok)
49,บำรุงราษฎร์,33 สุขุมวิท ซอย 3 (นานาเหนือ) ถ.สุขุมวิท แขวงคลองตันเหนือ,วัฒนา,กรุงเทพมหานคร,10110,02-6671000,กรุงเทพมหานคร (Bangkok)
50,สมิติเวช สุขุมวิท,133 ซ.สุขุมวิท 49 ถ.สุขุมวิท แขวงคลองตันเหนือ,วัฒนา,กรุงเทพมหานคร,10110,02-3920011,กรุงเทพมหานคร (Bangkok)
51,สุขุมวิท,1411 ถ.สุขุมวิท แขวงพระโขนงเหนือ,วัฒนา,กรุงเทพมหานคร,10110,02-3910011,กรุงเทพมหานคร (Bangkok)
52,กรุงเทพคริสเตียน,124ถ.สีลม,บางรัก,กรุงเทพมหานคร,10500,02-2351000-7,กรุงเทพมหานคร (Bangkok)
53,แพทย์ปัญญา,124-126 ถ.รามคำแหง,สวนหลวง,กรุงเทพมหานคร,10250,02-3140726-9,กรุงเทพมหานคร (Bangkok)
54,วิภาราม,2677 ถ.พัฒนาการ แขวงสวนหลวง,สวนหลวง,กรุงเทพมหานคร,10250,02-7222500,กรุงเทพมหานคร (Bangkok)
55,สมิติเวช ศรีนครินทร์,488 ถ.ศรีนครินทร์ แขวงสวนหลวง,สวนหลวง,กรุงเทพมหานคร,10250,02-7317000,กรุงเทพมหานคร (Bangkok)
56,การุญเวช สุขาภิบาล 3,"88,90,92, ถ. รามคำแหง แขวงสะพานสูง",สะพานสูง,กรุงเทพมหานคร,10240,02-7293000,กรุงเทพมหานคร (Bangkok)
57,เซนต์หลุยส์,27 ถ.สาธรใต้,สาทร,กรุงเทพมหานคร,10120,02-6755000,กรุงเทพมหานคร (Bangkok)
58,บี.แคร์ เมดิคอลเซ็นเตอร์,29 ม.6 แขวงสายไหม,สายไหม,กรุงเทพมหานคร,10220,02-5233359-71,กรุงเทพมหานคร (Bangkok)
59,สายไหม,91 หมู่ 1 ถนนเฉลิมพงษ์ แขวงสายไหม,สายไหม,กรุงเทพมหานคร,10220,02-9918999,กรุงเทพมหานคร (Bangkok)
60,วิชัยเวช อินเตอร์เนชั่นแนล หนองแขม,456-456/9 ถ.เพชรเกษม แขวงหนองค้างพลู,หนองแขม,กรุงเทพมหานคร,10160,"02-8074044 , 02-4416999",กรุงเทพมหานคร (Bangkok)
61,มงกุฎวัฒนะ,34/40 ถ.แจ้งวัฒนะ แขวงทุ่งสองห้อง,หลักสี่,กรุงเทพมหานคร,10210,02-5745000,กรุงเทพมหานคร (Bangkok)
62,กรุงเทพ,2 ซ.ศูนย์วิจัย 7 ถ.เพชรบุรีตัดใหม่,ห้วยขวาง,กรุงเทพมหานคร,10310,02-3103000,กรุงเทพมหานคร (Bangkok)
63,ปิยะเวท,998 ถ.ริมคลองสามเสนใน บางกะปิ,ห้วยขวาง,กรุงเทพมหานคร,10320,02-6256500,กรุงเทพมหานคร (Bangkok)
64,พระรามเก้า,99 ถ.พระราม 9 แขวงบางกะปิ,ห้วยขวาง,กรุงเทพมหานคร,10320,02-2488020,กรุงเทพมหานคร (Bangkok)
65,เพชรเวช,"2469/13 , 15 แขวงบางกะปิ ถนนเพชรบุรีตัดใหม่",ห้วยขวาง,กรุงเทพมหานคร,10320,02-7181515,กรุงเทพมหานคร (Bangkok)
66,กรุงเทพ ไชน่าทาวน์,624 ถ.เยาวราช,สัมพันธวงศ์,กรุงเทพมหานคร,10100,02-1187888,กรุงเทพมหานคร (Bangkok)
1,นนทเวช,432 ถนนงามวงศ์วาน ตำบลบางเขน,เมือง,นนทบุรี,11000,02-5890102-7,ปริมณฑล ( Perimeter )
2,เกษมราษฎร์ อินเตอร์เนชั่นแนล รัตนาธิเบศร์,60 ม.6 ถ.ตลิ่งชัน-สุพรรณบุรี ต.เสาธงหิน,บางใหญ่,นนทบุรี,11140,02-5940020-65,ปริมณฑล ( Perimeter )
3,กรุงไทย,56/96 ม.5 ต.ปากเกร็ด,ปากเกร็ด,นนทบุรี,11120,02-5822299,ปริมณฑล ( Perimeter )
4,เวิลด์เมดิคอลเซ็นเตอร์,44 หมู่ 4 ถนนแจ้งวัฒนะ ตำบลปากเกร็ด,ปากเกร็ด,นนทบุรี,11120,02 - 836999,ปริมณฑล ( Perimeter )
5,เกษมราษฎร์ รัตนาธิเบศร์ (การุญเวช รัตนาธิเบศร์),58 หมู่ 1 ต.บางรักพัฒนา,บางบัวทอง,นนทบุรี,11110,02-9213400-9,ปริมณฑล ( Perimeter )
6,กรุงสยามเซนต์คาร์ลอส,5/84 ม.2 ถ.ติวานนท์ ต.บ้านกลาง,เมือง,ปทุมธานี,12000,02-9756700,ปริมณฑล ( Perimeter )
7,การุญเวช ปทุมธานี,98 หมู่ 13 ถ.พหลโยธิน กม.46 ต.คลองหนึ่ง,คลองหลวง,ปทุมธานี,12120,02-5294533,ปริมณฑล ( Perimeter )
8,ภัทร ธนบุรี,32/410 หมู่ 6 ถ.พหลโยธิน ต.คลองหนึ่ง,คลองหลวง,ปทุมธานี,12120,02-9018081-2,ปริมณฑล ( Perimeter )
9,บางปะกอก-รังสิต 2(เอกปทุม),757 ถ.รังสิต-นครนายก ต.ประชาธิปัตย์,ธัญบุรี,ปทุมธานี,12130,02-9962211-15,ปริมณฑล ( Perimeter )
10,ปทุมเวช,1 ซ.รังสิต-ปทุมธานี 6,ธัญบุรี,ปทุมธานี,12130,02-5671991-9,ปริมณฑล ( Perimeter )
11,แพทย์รังสิต,733/345 ม.8 ถ.พหลโยธิน ต.คูคต,ลำลูกกา,ปทุมธานี,12130,02-9989999,ปริมณฑล ( Perimeter )
12,เฉพาะทางแม่และเด็กแพทย์รังสิต,733/347 หมู่ 8 ถนนพหลโยธิน ตำบลคูคต,ลำลูกกา,ปทุมธานี,12130,02-9989888,ปริมณฑล ( Perimeter )
13,เปาโล รังสิต,11/1 ถ.รังสิต-นครนายก ต.ประชาธิปัตย์,ธัญบุรี,ปทุมธานี,12130,02-532-4777-8,ปริมณฑล ( Perimeter )
14,เปาโล เมโมเรียล สมุทรปราการ,123 ม.8 ถ.ศรีนครินทร์ ต.บางเมือง,เมือง,สมุทรปราการ,10270,02-3892555,ปริมณฑล ( Perimeter )
15,เมืองสมุทรปากน้ำ,156 ถนนเทศบาล 12 ต.ปากน้ำ,เมือง,สมุทรปราการ,10270,02-1737766-75,ปริมณฑล ( Perimeter )
16,รัทรินทร์,999/23-29 ถ.สุขุมวิท ต.บางปูใหม่,เมือง,สมุทรปราการ,10280,02-3232991-7,ปริมณฑล ( Perimeter )
17,สำโรงการแพทย์,1748 ม.1 ต.สำโรงเหนือ,เมือง,สมุทรปราการ,10270,02-3610070-9,ปริมณฑล ( Perimeter )
18,บางนา2,9/9 ม.3ถ.บางนา - ตราด กม.23 ต.บางเสาธง,บางเสาธง,สมุทรปราการ,10540,02-7401800-6,ปริมณฑล ( Perimeter )
19,จุฬารัตน์3,88/8-9 หมู่ 11 ถนนเทพารักษ์ กม.145 ตำบลบางปลา,บางพลี,สมุทรปราการ,10540,02-7692900-99,ปริมณฑล ( Perimeter )
20,จุฬารัตน์9,90/5 หมู่ที่ ม.13 ตำบลราชเทวะ,บางพลี,สมุทรปราการ,10540,02-7389900-9,ปริมณฑล ( Perimeter )
21,บางนา 5,55 หมู่ 4 ต.บางพลีใหญ่,บางพลี,สมุทรปราการ,10540,02-1381155-65,ปริมณฑล ( Perimeter )
22,เมืองสมุทรปู่เจ้าฯ,83/16 หมู่ 7 ถ.ปู่เจ้าสมิงพราย ต.สำโรงกลาง,พระประแดง,สมุทรปราการ,10310,02-7542800-9,ปริมณฑล ( Perimeter )
23,วิภาราม ชัยปราการ,555 หมู่3 ถ.ปู่เจ้าสมิงพราย ต.สำโรงกลาง,พระประแดง,สมุทรปราการ,10250,02-3639222,ปริมณฑล ( Perimeter )
24,บางปะกอก 3,27/14 หมู่ 10 ถ.สุขสวัสดิ์ ต.บางครุ,พระประแดง,สมุทรปราการ,10130,02-8187555,ปริมณฑล ( Perimeter )
25,กรุงเทพพระประแดง,288 ถ.สุขสวัสดิ์ ม.1 ต.ปากคลองบางปลากด,พระสมุทรเจดีย์,สมุทรปราการ,10290,02-8157141-50,ปริมณฑล ( Perimeter )
1,กาญจนบุรี เมโมเรียล,111 ถ.แสงชูโต ต.ท่ามะขาม,เมือง,กาญจนบุรี,71000,034-624191,ภำคกลำง (CENTRAL)
2,ธนกาญจน์,20/20 ถ.แสงชูโต ต.บางใต้,เมือง,กาญจนบุรี,71000,034-622366-75,ภำคกลำง (CENTRAL)
3,ท่าม่วง,978/1 ถนนแสงชูโต หมู่ 3 ต.ท่าม่วง,ท่าม่วง,กาญจนบุรี,71110,034-613166,ภำคกลำง (CENTRAL)
4,ท่าเรือ,456 ถ. แสงชูโต ต.ท่าเรือ,ท่ามะกา,กาญจนบุรี,71120,034-636792-3,ภำคกลำง (CENTRAL)
5,รวมแพทย์ชัยนาท,170 หมู่ 4 ต.บ้านกล้วย,เมือง,ชัยนาท,17000,056-413017-8,ภำคกลำง (CENTRAL)
6,เทพากร,24 ซอย1 ถนนเทศา ตำบลพระปฐมเจดีย์,เมือง,นครปฐม,73000,034-212718-27,ภำคกลำง (CENTRAL)
7,กรุงเทพคริสเตียน นครปฐม,173 ถ.25 มกรา ต.พระปฐมเจดีย์,เมือง,นครปฐม,73000,034-213453-60,ภำคกลำง (CENTRAL)
8,กรุงเทพสนามจันทร์ (สนามจันทร์),1194 ถ.เพชรเกษม ต.สนามจันทร์,เมือง,นครปฐม,73000,034-219600,ภำคกลำง (CENTRAL)
9,ศาลายา,95 ม.3 ซอย ถนน ศาลายา-นครชัยศรี ตำบล ศาลายา,พุทธมณฑล,นครปฐม,73170,02-8892601-7,ภำคกลำง (CENTRAL)
10,ร่มฉัตร,748/1 ถ.โกสีย์ ต. ปากน้ำโพ,เมือง,นครสวรรค์,60000,056-312481-90,ภำคกลำง (CENTRAL)
11,รวมแพทย์ นครสวรรค์,"276,276/2 ถ.สวรรค์วิถี ต.ปากน้ำโพ",เมือง,นครสวรรค์,60000,"056-223600,056-223750",ภำคกลำง (CENTRAL)
12,ปากน้ำโพ 2 (รัตนเวช นครสวรรค์),62 ถ.อรรถกวี ต.ปากน้ำโพ,เมือง,นครสวรรค์,60000,056-212212-3,ภำคกลำง (CENTRAL)
13,ศรีสวรรค์,ง.33/64 ถนนดาวดึงส์ ต.ปากน้ำโพ,เมือง,นครสวรรค์,60000,056-311626-35,ภำคกลำง (CENTRAL)
14,ปากน้ำโพ,96/12 ถ.เอเชีย ต.นครสวรรค์,เมือง,นครสวรรค์,60000,056-225501-4,ภำคกลำง (CENTRAL)
15,มหาชัยเพชรรัชต์ (เพชรรัชต์ เพชรบุรี),99/9 ม.6 สี่แยกบันไดอิฐ ต.บ้านหม้อ,เมือง,เพชรบุรี,76000,032-417070-9,ภำคกลำง (CENTRAL)
16,เมืองเพชร (เมืองเพชร ธนบุรี),150 หมู่6 ถ.เพชรเกษม ต.ต้นมะม่วง,เมือง,เพชรบุรี,76000,032-415191-9,ภำคกลำง (CENTRAL)
17,ศุภมิตรเสนา,34/4 หมู่5 ต.บางนมโค,เสนา,พระนครศรีอยุธยา,13110,035-289572-79,ภำคกลำง (CENTRAL)
18,การุญเวช อยุธยา,61/9 หมู่ 4 ถ.พหลโยธิน กม.53 ต.คลองจิก,บางปะอิน,พระนครศรีอยุธยา,13160,035-315100-99,ภำคกลำง (CENTRAL)
19,ราชธานี,111 หมู่ 3 ถ.โรจนะ ต.คลองสวนพลู,พระนครศรีอยุธยา,พระนครศรีอยุธยา,13000,035-335555,ภำคกลำง (CENTRAL)
20,ราชธานี โรจนะ,78 หมู่3 ถนนโรจนะ ต.สามเรือน,บางปะอิน,พระนครศรีอยุธยา,13160,035-249249,ภำคกลำง (CENTRAL)
21,เมืองราช,59/3 ถ.เพชรเกษมสายเก่า ต. หน้าเมือง,เมือง,ราชบุรี,70000,032-322274-80,ภำคกลำง (CENTRAL)
22,พร้อมแพทย์,77/4 ถ.คฑาธร ต.หน้าเมือง,เมือง,ราชบุรี,70000,032-315234-9,ภำคกลำง (CENTRAL)
23,ดำเนินสะดวก,146 หมู่ 4 ต.ท่านัด,ดำเนินสะดวก,ราชบุรี,70130,032-246000-15,ภำคกลำง (CENTRAL)
24,ซานคามิลโล,31 ม.10 ต.สวนกล้วย,บ้านโป่ง,ราชบุรี,70110,032-211143,ภำคกลำง (CENTRAL)
25,เบญจรมย์,116 หมู่8 ต.ป่าตาล,เมือง,ลพบุรี,15000,036-413933,ภำคกลำง (CENTRAL)
26,เมืองนารายณ์,84 หมู่ 3 ต.ท่าศาลา,เมือง,ลพบุรี,15000,036-420666,ภำคกลำง (CENTRAL)
27,เอกชัย,99/9 หมู่ 4 ต. โคกขาม,เมือง,สมุทรสาคร,74000,034-417999,ภำคกลำง (CENTRAL)
28,มหาชัย 1,927/43 ค ถ.เศรษฐกิจ 1 ต.มหาชัย,เมือง,สมุทรสาคร,74000,034-424990,ภำคกลำง (CENTRAL)
29,มหาชัย 3,927/45 ถ.เศรษฐกิจ 1 ต.มหาชัย,เมือง,สมุทรสาคร,74000,034-429111,ภำคกลำง (CENTRAL)
30,วิชัยเวช อินเตอร์เนชั่นแนล สมุทรสาคร,93/256 ถนนเศรษฐกิจ1 ต.ท่าทราย,เมือง,สมุทรสาคร,74000,034-826709-10,ภำคกลำง (CENTRAL)
31,สมุทรสาคร,1500 ถ.เอกชัย ต.มหาชัย,เมือง,สมุทรสาคร,74000,"034-837521,034-427099",ภำคกลำง (CENTRAL)
32,วิภาราม สมุทรสาคร,9/19 หมู่2 ต.บางกระเจ้า,เมือง,สมุทรสาคร,74000,034 - 116999,ภำคกลำง (CENTRAL)
33,มหาชัย 2,301/1 ม.6 ต.อ้อมน้อย,กระทุ่มเบน,สมุทรสาคร,74130,02-4203200,ภำคกลำง (CENTRAL)
34,วิชัยเวช อินเตอร์เนชั่นแนล อ้อมน้อย,74/5 หมู่ 4 ถ.เพชรเกษม ต.อ้อมน้อย,กระทุ่มแบน,สมุทรสาคร,74130,02-4310070,ภำคกลำง (CENTRAL)
35,บ้านแพ้ว,198 หมู่ 1 ต.บ้านแพ้ว,บ้านแพ้ว,สมุทรสาคร,74120,"034-419501,034-419526",ภำคกลำง (CENTRAL)
36,มหาชัยแม่กลอง โรงพยาบาลทั่วไปขนาดกลาง (แม่กลอง),158/1 ถ.ราษฎร์ประสิทธิ์ ต.แม่กลอง,เมือง,สมุทรสงคราม,75000,034-715001-5,ภำคกลำง (CENTRAL)
37,สมเด็จพระพุทธเลิศหล้า,708 ถนนประสิทธิ์พัฒนา ตำบลแม่กลอง,เมือง,สมุทรสงคราม,75000,034-723044-9,ภำคกลำง (CENTRAL)
38,เกษมราษฏร์ สระบุรี,2/22 ถ.มิตรภาพ ต.ปากเพรียว,เมือง,สระบุรี,18000,036-315555-93,ภำคกลำง (CENTRAL)
39,มิตรภาพเมโมเรียล สระบุรี,9/1 ถนนมิตรภาพ ต.บางเพรียว,เมือง,สระบุรี,18000,"036-401100-11 , 036-212131-4",ภำคกลำง (CENTRAL)
40,สิงห์บุรีเวชชการ,80/1 หมู่6 ถ.สิงห์บุรี-อ่างทอง ต.ต้นโพธิ์,เมือง,สิงห์บุรี,16000,036-520517,ภำคกลำง (CENTRAL)
41,ศุภมิตร สุพรรณบุรี,76 ถ.เณรแก้ว ต.ท่าพี่เลี้ยง,เมือง,สุพรรณบุรี,72000,035-500283-8,ภำคกลำง (CENTRAL)
42,ธนบุรี อู่ทอง,2000/22 ม.6 ถ.มาลัยแมน ต.อู่ทอง,อู่ทอง,สุพรรณบุรี,72160,035-551673-7,ภำคกลำง (CENTRAL)
43,วิภาวดี-ปิยราษฎร์,1618/1 หมู่6 ต.อู่ทอง,อู่ทอง,สุพรรณบุรี,72160,035-552724,ภำคกลำง (CENTRAL)
44,อ่างทองเวชชการ 2,29/9 หมู่ 2 ต.ศาลาแดง,เมือง,อ่างทอง,14000,035-612361-4,ภำคกลำง (CENTRAL)
1,กระบี่,325 ถนนอุตรกิจ ต.ปากน้ำ,เมือง,กระบี่,81000,075-611212,ภำคใต้ (SOUTH )
2,รวมแพทย์ กระบี่,529 ถนนอุตรกิจ ต.กระบี่ใหม่,เมือง,กระบี่,81000,075-632204,ภำคใต้ (SOUTH )
3,กระบี่นครินทร์ อินเตอร์เนชั่นแนล,1 ถ.พิศาลภพ ต.ปากน้ำ,เมือง,กระบี่,81000,075-626555,ภำคใต้ (SOUTH )
4,ธนบุรี ชุมพร,121 ม.3 ต.วังไผ่,เมือง,ชุมพร,86000,077-658617-28,ภำคใต้ (SOUTH )
5,วิรัชศิลป์,18/22 ถ.ปรมินทรมรรคา ต.ท่าตะเภา,เมือง,ชุมพร,86000,077-503238-40,ภำคใต้ (SOUTH )
6,พะโต๊ะ (ยุตติสัญญา),138 ม.8 ต.พะโต๊ะ,พะโต๊ะ,ชุมพร,86180,077-539044-6,ภำคใต้ (SOUTH )
7,ตรังรวมแพทย์,61/39 ถ.โคกขัน ต.ทับเที่ยง,เมือง,ตรัง,92000,075-218988,ภำคใต้ (SOUTH )
8,วัฒนแพทย์ตรัง,247/2 ถ.พัทลุง ต.ทับเที่ยง,เมือง,ตรัง,92000,075-205555,ภำคใต้ (SOUTH )
9,นครคริสเตียน,1110/2 ถ.ศรีปราชญ์ ต.คลัง,เมือง,นครศรีธรรมราช,80000,075-317109-10,ภำคใต้ (SOUTH )
10,นครพัฒน์,2/99 ถ.พัฒนาการคูขวาง ต. ในเมือง,เมือง,นครศรีธรรมราช,80000,075-305999,ภำคใต้ (SOUTH )
11,นครินทร์,61 อ้อมค่ายวชิราวุธ ต.ท่าวัง,เมือง,นครศรีธรรมราช,80000,075-312800-15,ภำคใต้ (SOUTH )
12,ซาน เปาโล หัวหิน,222 ถ.เพชรเกษม,หัวหิน,ประจวบคีรีขันธ์,77110,032-532576-85,ภำคใต้ (SOUTH )
13,กรุงเทพ หัวหิน,888 ถนนเพชรเกษม ตำบลหัวหิน,หัวหิน,ประจวบคีรีขันธ์,77110,032-616800,ภำคใต้ (SOUTH )
14,พังงา,436 ถ.เพชรเกษม ต.ท้ายช้าง,เมือง,พังงา,82000,076-411618-9,ภำคใต้ (SOUTH )
15,ตะกั่วป่า,39/3 หมู่ 1 ถ. เพชรเกษม ต. บางนายสี,ตะกั่วป่า,พังงา,82110,"076-584250 , 076-421770,076-421138",ภำคใต้ (SOUTH )
16,พัทลุง,421 ถนนราเมศวร์ ตำบลคูหาสวรรค์,เมือง,พัทลุง,93000,074 - 609500,ภำคใต้ (SOUTH )
17,กรุงเทพภูเก็ต,2/1 ถ.หงษ์หยกอุทิศ ต.ตลาดใหม่,เมือง,ภูเก็ต,83000,076-254421-4,ภำคใต้ (SOUTH )
18,มิชชั่นภูเก็ต,4/1 ม.3 ถ.เทพกษัตริย์ ต.รัชฎา,เมือง,ภูเก็ต,83000,076-237220-6,ภำคใต้ (SOUTH )
19,วชิระภูเก็ต,353 ถนนเยาวราช ตำบลตลาดใหญ่,เมือง,ภูเก็ต,83001,076-361236,ภำคใต้ (SOUTH )
20,สิริโรจน์,44 ถ.เฉลิมพระเกียรติ ร.9 ต.วิชิต,เมือง,ภูเก็ต,83000,076-249400,ภำคใต้ (SOUTH )
21,องค์การบริหารส่วนจังหวัดภูเก็ต,"18,20 ถนนอนุภาษภูเก็ตการ ตำบลตลาดใหญ่",เมือง,ภูเก็ต,83000,076-358888,ภำคใต้ (SOUTH )
22,ดีบุก,89/8-9 หมู่ 2ต.วิชิต,เมือง,ภูเก็ต,83000,076-254555,ภำคใต้ (SOUTH )
23,สิโรรส,247-249 ถ.สิโรรส ต.สะเตง,เมือง,ยะลา,95000,073-221114-5,ภำคใต้ (SOUTH )
24,กรุงเทพ หาดใหญ่,75 ซอย 15 ถ.เพชรเกษม,หาดใหญ่,สงขลา,90110,074-365780-9,ภำคใต้ (SOUTH )
25,ราษฎร์ยินดี,119 ถ.ราษฎร์ยินดี,หาดใหญ่,สงขลา,90110,074-200200,ภำคใต้ (SOUTH )
26,ศิครินทร์ หาดใหญ่,169 ถ.นิพัทธ์สงเคราะห์ 1,หาดใหญ่,สงขลา,90110,074-366966,ภำคใต้ (SOUTH )
27,ไทยอินเตอร์เนชั่นแนล,25/25 ม.6 ต.บ่อผุด,เกาะสมุย,สุราษฎร์ธานี,84320,077-245721-6,ภำคใต้ (SOUTH )
28,กรุงเทพสมุย,57 หมู่ 3 ถนนทวีราษฎร์ภักดี ต.บ่อผุด,เกาะสมุย,สุราษฎร์ธานี,84320,077-429500,ภำคใต้ (SOUTH )
29,บ้านดอนอินเตอร์,123/1 ม. 1 ต.บ่อผุด,เกาะสมุย,สุราษฎร์ธานี,84320,077-245236-8,ภำคใต้ (SOUTH )
30,สมุยอินเตอร์เนชั่นแนล,90/2 หมู่ 2 ต.บ่อผุด,เกาะสมุย,สุราษฎร์ธานี,84320,077-230781-2,ภำคใต้ (SOUTH )
31,ทักษิณ,309/2 ถ.ตลาดใหม่ ต.ตลาด,เมือง,สุราษฎร์ธานี,84000,077-285701-5,ภำคใต้ (SOUTH )
32,ศรีวิชัย สุราษฎร์ธานี,67/47-50 หมู่ 2 ถ. ศรีวิชัย ต.มะขามเตี้ย,เมือง,สุราษฎร์ธานี,84000,077-282520-21,ภำคใต้ (SOUTH )
1,เอกชนเมืองกำแพง,68 ถนนเลี่ยงเมือง ตำบลในเมือง,เมือง,กำแพงเพชร,62000,055-716701-5,ภำคเหนือ (NORTH)
2,เชียงใหม่ ราม,8 ถ.บุญเรืองฤทธิ์,เมือง,เชียงใหม่,50000,053-920300,ภำคเหนือ (NORTH)
3,เชียงใหม่ใกล้หมอ,157/16-19 ถ.เชียงใหม่-ฮอต,เมือง,เชียงใหม่,50100,053-200002,ภำคเหนือ (NORTH)
4,เซ็นทรัลเชียงใหม่เมโมเรียล,186 ถ.ช้างคลาน ต.ช้างคลาน,เมือง,เชียงใหม่,50000,053-819333-40,ภำคเหนือ (NORTH)
5,เทพปัญญา,99 หมู่5 ถ.เชียงใหม่-ลำปาง,เมือง,เชียงใหม่,50000,053-852590,ภำคเหนือ (NORTH)
6,แมคคอร์มิค,133 ถนนแก้วนวรัฐ ตำบลวัดเกต,เมือง,เชียงใหม่,50000,053-921777,ภำคเหนือ (NORTH)
7,ราชเวช เชียงใหม่,316/1 ถ.เชียงใหม่-ลำพูน ต.วัดเกตุ,เมือง,เชียงใหม่,50000,053-801999,ภำคเหนือ (NORTH)
8,ลานนา,1 ถนนสุขเกษม แขวงนครพิงค์ ต.ป่าตัน,เมือง,เชียงใหม่,50300,053-999-777,ภำคเหนือ (NORTH)
9,ศูนย์ศรีพัฒน์ คณะแพทยศาสตร์ มหาวิทยาลัยเชียงใหม่,110/392 อาคารศรีพัฒน์ ถ.อินทวโรรส ต.ศรีภู,เมือง,เชียงใหม่,50200,053-946505,ภำคเหนือ (NORTH)
10,เชียงใหม่ ฮอสพิทอล (สยามราษฏร์ เชียงใหม่),84/3 ถ.เชียงใหม่-ลำปาง ต.ช้างเผือก,เมือง,เชียงใหม่,50300,053-215020-2,ภำคเหนือ (NORTH)
11,กรุงเทพ เชียงใหม่,88/8 หมู่ 6 ถ.ซุปเปอ์ไฮเวย์ ต.หนองป่าครั่ง,เมือง,เชียงใหม่,50000,052-089888,ภำคเหนือ (NORTH)
12,เกษมราษฎร์ ศรีบุรินทร์,111/5 ถ.เอเชีย ต.สันทราย,เมือง,เชียงราย,57000,"053-910999,053-717499",ภำคเหนือ (NORTH)
13,โอเวอร์บรุ๊ค,17 ถ.สิงหไคล ต.เวียง,เมือง,เชียงราย,57000,053-711366,ภำคเหนือ (NORTH)
14,เชียงรายอินเตอร์,123 หมู่ 26 ถนนพหลโยธิน ตำบลรอบเวียง,เมือง,เชียงราย,57000,053-719719,ภำคเหนือ (NORTH)
15,เพชรรัตน์ เพชรบูรณ์,2/1 ถ.สามัคคีชัย ต.ในเมือง,เมือง,เพชรบูรณ์,67000,056-720680-4,ภำคเหนือ (NORTH)
16,เมืองเพชร (เพชรบูรณ์),9 ถ.เพชรรัตน์ ต.ในเมือง,เมือง,เพชรบูรณ์,67000,056-748030-3,ภำคเหนือ (NORTH)
17,โรงพยาบาลทั่วไปขนาดเล็กนครหล่ม,163/75 ถ.คชเสนีย์ ต. หล่มสัก,หล่มสัก,เพชรบูรณ์,67110,056-702015-7,ภำคเหนือ (NORTH)
18,พิษณุเวช,211 ถ.ขุนพิเรนทรเทพ ต.ในเมือง,เมือง,พิษณุโลก,65000,055-909000,ภำคเหนือ (NORTH)
19,รวมแพทย์พิษณุโลก,224/30 ถ.บรมไตรโลกนาถ ต.ในเมือง,เมือง,พิษณุโลก,65000,055-219307,ภำคเหนือ (NORTH)
20,กรุงเทพ พิษณุโลก,138 ถนนพระองค์ดำ ตำบลในเมือง,เมือง,พิษณุโลก,65000,"055-212222 , 055-210819-27",ภำคเหนือ (NORTH)
21,พิษณุโลก ฮอสพิทอล (อินเตอร์เวชการ พิษณุโลก ),262/55 ถ.บรมไตรโลกนาถ ต.ในเมือง,เมือง,พิษณุโลก,65000,055-218777,ภำคเหนือ (NORTH)
22,แพร่คริสเตียน,7 ถ.ยัตรกิจโกศล ต.ในเวียง,เมือง,แพร่,54000,054-511017,ภำคเหนือ (NORTH)
23,แพร่-ราม,3 ตรอกยนตรกิจโกศล ถ.ยันตรกิจโกศล ต.ในเวียง,เมือง,แพร่,54000,054-522911-13,ภำคเหนือ (NORTH)
24,พะเยา ราม,660 หมู่3 ต.ท่าวังทอง,เมือง,พะเยา,56000,054-411111-40,ภำคเหนือ (NORTH)
25,ชัยอรุณเวชการ,31/12 ถนนสระหลวง ตำบลในเมือง,เมือง,พิจิตร,66000,056-651407,ภำคเหนือ (NORTH)
26,สหเวช,2/158 ถ.ศรีมาลา ต.ในเมือง,เมือง,พิจิตร,66000,056-612791-3,ภำคเหนือ (NORTH)
27,แม่สอด-ราม (พะวอ),3/24 ถ.ราชอุทิศ ต.แม่สอด,แม่สอด,ตาก,63110,055-533912-5,ภำคเหนือ (NORTH)
28,นครแม่สอด อินเตอร์เนชั่นแนล,222 หมู่9 ต.แม่ปะ,แม่สอด,ตาก,63110,055-518200-22,ภำคเหนือ (NORTH)
29,ท่าวังผา,84 หมู่ 1 ต.ท่าวังผา,ท่าวังผา,น่าน,55140,054-755380,ภำคเหนือ (NORTH)
30,เขลางค์นคร ราม,79/12 ถ.พหลโยธิน ต.สวนดอก,เมือง,ลำปาง,52100,054-019619,ภำคเหนือ (NORTH)
31,หริภุญชัยเมโมเรียล,109 - 111 หมู่4 ต.บ้านกลาง,เมือง,ลำพูน,51000,053-581600-6,ภำคเหนือ (NORTH)
32,พัฒนเวช สุโขทัย,89/9 ถ.สิงหวัฒน์ ต.ธานี,เมือง,สุโขทัย,64000,055-621502-7,ภำคเหนือ (NORTH)
33,รวมแพทย์สุโขทัย,151 ถ.จรดวิถีสอง ต.บ้านกล้วย,เมือง,สุโขทัย,64000,055-612211-12,ภำคเหนือ (NORTH)
1,กรุงเทพจันทบุรี,25/14 ถ.ท่าหลวง ต.วัดใหม่,เมือง,จันทบุรี,22000,039-319888,ภำคตะวันออก (EAST)
2,สิริเวช,151 หมู่ 7 ถ.ตรีรัตน์ ต.จันทนิมิต,เมือง,จันทบุรี,22000,039-605666,ภำคตะวันออก (EAST)
3,เกษมราษฎร์ ฉะเชิงเทรา (โสธราเวช),29 ถนนสุวินทวงศ์ ต.หน้าเมือง,เมือง,ฉะเชิงเทรา,24000,038-812702-19,ภำคตะวันออก (EAST)
4,จุฬารัตน์11,185/1 ม.1 ถ.บางนา-ตราด กม.42 ต.บางวัว,บางปะกง,ฉะเชิงเทรา,24180,038-538511-3,ภำคตะวันออก (EAST)
5,เอกชล,68/3 ถนนพระยาสัจจา ต.บ้านสวน,เมือง,ชลบุรี,20000,038-273840-7,ภำคตะวันออก (EAST)
6,เอกชล 2,31/2 หมู่ 3 ถ.อ่างศิลา ต. เสม็ด,เมือง,ชลบุรี,20000,038-939888,ภำคตะวันออก (EAST)
7,จุฬารัตน์ ชลเวช (ชลเวช),104/15 ซ.หน้าวัดต้นสน ถ.อัคนิวาต ต.บางปลาสร้อย,เมือง,ชลบุรี,20000,038-284534-5,ภำคตะวันออก (EAST)
8,ชลบุรี,69 หมู่ 2 ถ.สุขุมวิท ต. บ้านสวน,เมือง,ชลบุรี,20000,038-931075-6,ภำคตะวันออก (EAST)
9,สมิติเวช ชลบุรี,888/88 หมู่ 3 ถนนสุขุมวิท ตำบลบ้านสวน,เมือง,ชลบุรี,20000,033-038888,ภำคตะวันออก (EAST)
10,ปิยะเวชช์ บ่อวิน,28/8 หมู่ 8 ตำบลบ่อวิน,ศรีราชา,ชลบุรี,20230,"038-345333,038-345111",ภำคตะวันออก (EAST)
11,กรุงเทพ พัทยา,301 หมู่ 6 ถ.สุขุมวิท กม.143 ต.นาเกลือ,บางละมุง,ชลบุรี,20150,038-909088,ภำคตะวันออก (EAST)
12,พัทยาเมโมเรียล,328/1 หมู่ 9 ถนนพัทยากลาง ตำบลหนองปรือ,บางละมุง,ชลบุรี,20000,038-488777,ภำคตะวันออก (EAST)
13,วิภาราม แหลมฉบัง,107 หมู่ 10 ถนนสุขุมวิท ตำบลทุ่งสุขลา,ศรีราชา,ชลบุรี,20230,038-491888,ภำคตะวันออก (EAST)
14,พญาไท ศรีราชา,90 ศรีราชานคร ถ.สุขุมวิท,ศรีราชา,ชลบุรี,20110,038-317333,ภำคตะวันออก (EAST)
15,สมเด็จพระบรมราชเทวี ณ ศรีราชา สภากาชาดไทย,290 ถ.เจิมจอมพล ต.ศรีราชา,ศรีราชา,ชลบุรี,20110,038-322157-9,ภำคตะวันออก (EAST)
16,สมิติเวช ศรีราชา,8 ซ.แหลมเกตุ ถ.เจิมจอมพล ต.ศรีราชา,ศรีราชา,ชลบุรี,20110,"038-320300,038-324100",ภำคตะวันออก (EAST)
17,กรุงเทพตราด,376 ถ.สุขุมวิท ต.วังกระแจะ,เมือง,ตราด,23000,039-532735-7,ภำคตะวันออก (EAST)
18,ตราด,108 ถ.สุขุมวิท ต. วังกระแจะ,เมือง,ตราด,23000,039-531784-86,ภำคตะวันออก (EAST)
19,กรุงเทพระยอง,8 หมู่ 2 ถ.แสงจันทร์เนรมิต ต.เนินพระ,เมือง,ระยอง,21000,038-921999,ภำคตะวันออก (EAST)
20,มงกุฎระยอง,149/1 ถ.มาบยา ต.มาบตาพุด,เมือง,ระยอง,21150,038-691800-9,ภำคตะวันออก (EAST)
21,รวมแพทย์ระยอง,065/28 ถ.จันทอุดม ต.ท่าประดู่,เมือง,ระยอง,21000,038-860890-3,ภำคตะวันออก (EAST)
22,ระยอง,138 ถ.สุขุมวิท ต.ท่าประดู่,เมือง,ระยอง,21000,038-611104,ภำคตะวันออก (EAST)
23,ศรีระยอง,333/3 หมู่ 4 ตำบลเชิงเนิน,เมือง,ระยอง,21000,038-995800-99,ภำคตะวันออก (EAST)
24,วิภาราม อมตะ,700/888 หมู่1 ต.คลองตำหรุ,เมือง,ชลบุรี,20000,038-316999,ภำคตะวันออก (EAST)
1,ขอนแก่น,"54 ,56 ถ. ศรีจันทร์ ต. ในเมือง",เมือง,ขอนแก่น,40000,043-336428,ภำคตะวันออกเฉียงเหนือ ( NORTH - EAST)
2,ขอนแก่น ราม,193 ถ.ศรีจันทร์,เมือง,ขอนแก่น,40000,043-333800,ภำคตะวันออกเฉียงเหนือ ( NORTH - EAST)
3,กรุงเทพ ขอนแก่น,888 ม.16 ถ.มะลิวัลย์ ต.ในเมือง,เมือง,ขอนแก่น,40001,043 -042721,ภำคตะวันออกเฉียงเหนือ ( NORTH - EAST)
4,ราชพฤกษ์,150/19 ถ.มิตรภาพ,เมือง,ขอนแก่น,40000,043-333-555-62,ภำคตะวันออกเฉียงเหนือ ( NORTH - EAST)
5,ชัยภูมิ ราม,290/42 หมู่ 6 บ้านหนองสังข์ ต.ในเมือง,เมือง,ชัยภูมิ,36000,044-836888,ภำคตะวันออกเฉียงเหนือ ( NORTH - EAST)
6,ชัยภูมิรวมแพทย์,619 ถ.นิเวศรัตน์ ต.ในเมือง,เมือง,ชัยภูมิ,36000,044-813222,ภำคตะวันออกเฉียงเหนือ ( NORTH - EAST)
7,เซนต์เมรี่,307 ถ.มิตรภาพ-หนองคาย ต.ในเมือง,เมือง,นครราชสีมา,30000,044-261261,ภำคตะวันออกเฉียงเหนือ ( NORTH - EAST)
8,กรุงเทพ ราชสีมา,1308/9 ถ.มิตรภาพ ต.ในเมือง,เมือง,นครราชสีมา,30000,044-429999,ภำคตะวันออกเฉียงเหนือ ( NORTH - EAST)
9,ป.แพทย์,45-53 ถ.ไชยณรงค์ ต.ในเมือง,เมือง,นครราชสีมา,30000,"044-230530-3 , 044-230530-2 ตึก2",ภำคตะวันออกเฉียงเหนือ ( NORTH - EAST)
10,มหาวิทยาลัยเทคโนโลยีสุรนารี,111 ถนนมหาวิทยาลัย ต.สุรนารี,เมือง,นครราชสีมา,30001,044-376-555,ภำคตะวันออกเฉียงเหนือ ( NORTH - EAST)
11,บัวใหญ่รวมแพทย์,5/1 ถ.เทศบาล5 ต.บัวใหญ่,บัวใหญ่,นครราชสีมา,30120,044-292249-53,ภำคตะวันออกเฉียงเหนือ ( NORTH - EAST)
12,กรุงเทพ ปากช่อง,5/1 ถนนมิตรภาพ ตำบลหนองสาหร่าย,ปากช่อง,นครราชสีมา,30130,"044-316611-5,044-279898,044-279901",ภำคตะวันออกเฉียงเหนือ ( NORTH - EAST)
13,เอกชน บุรีรัมย์,197 ต.ชุมเห็ด,เมือง,บุรีรัมย์,31000,044-614100-7,ภำคตะวันออกเฉียงเหนือ ( NORTH - EAST)
14,มหาสารคามอินเตอร์เนชั่นแนล,112 ถ.เทศบาลอาชา,เมือง,มหาสารคาม,44000,043-723669,ภำคตะวันออกเฉียงเหนือ ( NORTH - EAST)
15,มุกดาหาร อินเตอร์เนชั่นแนล,87 ถ.มุกดาหาร-ดอนตาล ต.ศรีบุญเรือง,เมือง,มุกดาหาร,49000,042-633301-9,ภำคตะวันออกเฉียงเหนือ ( NORTH - EAST)
16,นายแพทย์หาญ,160-164 ถ.วิทยธำรงค์ ต.ในเมือง,เมือง,ยโสธร,35000,045-711356,ภำคตะวันออกเฉียงเหนือ ( NORTH - EAST)
17,รวมแพทย์ ยโสธร (หาญอินเตอร์),29 ม.- ซ.- ถ.มงคลบูรพา ต.ในเมือง,เมือง,ยโสธร,35000,045-712141-2,ภำคตะวันออกเฉียงเหนือ ( NORTH - EAST)
18,ทั่วไปขนาดใหญ่จุรีเวช (กรุงเทพ จุรีเวช),368 ถ.เทวภิบาล,เมือง,ร้อยเอ็ด,45000,043-527111,ภำคตะวันออกเฉียงเหนือ ( NORTH - EAST)
19,ร้อยเอ็ดธนบุรี,166 หมู่ที่ ซอย ถนน ปัทมานนท์ แขวง/ตำบล ในเมือง,เมือง,ร้อยเอ็ด,45000,043-515191,ภำคตะวันออกเฉียงเหนือ ( NORTH - EAST)
20,เมืองเลย ราม,546 หมู่1 ต.นาอาน,เมือง,เลย,42000,042-833400,ภำคตะวันออกเฉียงเหนือ ( NORTH - EAST)
21,ประชารักษ์เวชการ,872 ถ.อุบล ต.เมืองใต้,เมือง,ศรีสะเกษ,33000,045-631313-9,ภำคตะวันออกเฉียงเหนือ ( NORTH - EAST)
22,รักษ์สกล,1446/47 ถ.รอบเมือง ต.ธาตุเชิงชม,เมือง,สกลนคร,47000,042-712800,ภำคตะวันออกเฉียงเหนือ ( NORTH - EAST)
23,รวมแพทย์สุรินทร์,312/1 ถ.เทศบาล 1 ต.ในเมือง,เมือง,สุรินทร์,32000,044-515700-1,ภำคตะวันออกเฉียงเหนือ ( NORTH - EAST)
24,รวมแพทย์หนองคาย,710 ซ.พรมดำหริห์ ถ.ประจักษ์ ต.ในเมือง,เมือง,หนองคาย,43000,042-421412-4,ภำคตะวันออกเฉียงเหนือ ( NORTH - EAST)
25,หนองคายวัฒนา,1159/4 หมู่2 ถ.ประจักษ์ ต.ในเมือง,เมือง,หนองคาย,43000,042-465201-8,ภำคตะวันออกเฉียงเหนือ ( NORTH - EAST)
26,วีระพลการแพทย์,12 ถ.วิจารณ์รังสรรค์ ต.ลำภู,เมือง,หนองบัวลำภู,39000,042-312344-6,ภำคตะวันออกเฉียงเหนือ ( NORTH - EAST)
27,เอกอุดร,555/5 ถ. โพศรี ต. หมากแข้ง,เมือง,อุดรธานี,41000,042-342555,ภำคตะวันออกเฉียงเหนือ ( NORTH - EAST)
28,นอร์ทอีสเทอร์น วัฒนา,70/7-8 ถ.ศุภกิจจรรยา ต.หมากแข้ง,เมือง,อุดรธานี,41000,042-325999,ภำคตะวันออกเฉียงเหนือ ( NORTH - EAST)
29,กรุงเทพ อุดร,111 ถนนทองใหญ่ ต.หมากแข้ง,เมือง,อุดรธานี,41000,042-343111,ภำคตะวันออกเฉียงเหนือ ( NORTH - EAST)
30,ราชเวชอุบลราชธานี,999 ถ.ชยางกูร ต.ในเมือง,เมือง,อุบลราชธานี,34000,045-280040-55,ภำคตะวันออกเฉียงเหนือ ( NORTH - EAST)
31,อุบลรักษ์ ธนบุรี,46/4 ถ.บูรพาใน ต.ในเมือง,เมือง,อุบลราชธานี,34000,045-260300,ภำคตะวันออกเฉียงเหนือ ( NORTH - EAST)